SatCatId,ObjectName,LaunchYear,OrbitalPeriod,LaunchMass,StatusCode,Inclination,Status,UcsData,OrbitClassEstimated,LaunchSiteCountry,Owner,UseType,Purpose,LaunchVehicleClass,TLE1,TLE2,MeanMotion,Eccentricity,OrbitClass
48304,STARLINK-2524,2021,95.59,260.0,+,53.05,Active,1,LEO,USA,USA,Commercial,Communications,Falcon,1 48304U 21036AE  24131.53586157  .00009313  00000+0  64318-3 0  9992,2 48304  53.0532 211.0760 0001290  90.2382 269.8754 15.06404665167464,15.06404665,0.000129,LEO
48305,STARLINK-2519,2021,95.59,260.0,+,53.05,Active,1,LEO,USA,USA,Commercial,Communications,Falcon,1 48305U 21036AF  24131.52117478  .00003056  00000+0  22404-3 0  9996,2 48305  53.0537 211.7192 0001252  90.6291 269.4841 15.06390538167452,15.06390538,0.0001252,LEO
48306,STARLINK-2523,2021,95.59,260.0,+,53.05,Active,1,LEO,USA,USA,Commercial,Communications,Falcon,1 48306U 21036AG  24131.59484833  .00008605  00000+0  59587-3 0  9993,2 48306  53.0536 210.8101 0001566  96.5666 263.5502 15.06399699167479,15.06399699,0.0001566,LEO
48307,STARLINK-2528,2021,95.59,260.0,+,53.05,Active,1,LEO,USA,USA,Commercial,Communications,Falcon,1 48307U 21036AH  24131.52481814  .00011376  00000+0  78142-3 0  9990,2 48307  53.0527 211.1233 0001657  87.4035 272.7143 15.06395947167464,15.06395947,0.0001657,LEO
48308,STARLINK-2532,2021,89.97,260.0,P,53.04,Active,1,LEO,USA,USA,Commercial,Communications,Falcon,1 48308U 21036AJ  24131.66996907  .00818286  32813-3  14858-2 0  9999,2 48308  53.0444 183.2207 0001123  68.5762  75.3862 16.00944458168455,16.00944458,0.0001123,LEO
48309,STARLINK-2517,2021,95.59,260.0,+,53.05,Active,1,LEO,USA,USA,Commercial,Communications,Falcon,1 48309U 21036AK  24131.51744165  .00004842  00000+0  34389-3 0  9997,2 48309  53.0531 211.1573 0001361  90.2925 269.8220 15.06383026167468,15.06383026,0.0001361,LEO
48310,STARLINK-2536,2021,95.59,260.0,+,53.05,Active,1,LEO,USA,USA,Commercial,Communications,Falcon,1 48310U 21036AL  24131.51373145  .00002976  00000+0  21862-3 0  9993,2 48310  53.0532 211.1735 0001479  85.3624 274.7533 15.06395278167466,15.06395278,0.0001479,LEO
48311,STARLINK-2534,2021,95.59,260.0,+,53.05,Active,1,LEO,USA,USA,Commercial,Communications,Falcon,1 48311U 21036AM  24131.51004107  .00000416  00000+0  46835-4 0  9998,2 48311  53.0539 211.1895 0001454  94.6804 265.4352 15.06393509167468,15.06393509,0.0001454,LEO
48312,STARLINK-2061,2021,95.59,260.0,+,53.05,Active,1,LEO,USA,USA,Commercial,Communications,Falcon,1 48312U 21036AN  24131.50635917  .00001896  00000+0  14622-3 0  9998,2 48312  53.0547 211.2056 0001534  84.1740 275.9424 15.06387065167466,15.06387065,0.0001534,LEO
48313,STARLINK-2541,2021,95.59,260.0,+,53.06,Active,1,LEO,USA,USA,Commercial,Communications,Falcon,1 48313U 21036AP  24131.50267963 -.00001403  00000+0 -75369-4 0  9993,2 48313  53.0538 211.2295 0001415  95.3279 264.7872 15.06383479167458,15.06383479,0.0001415,LEO
48314,STARLINK-2549,2021,95.59,260.0,+,53.05,Active,1,LEO,USA,USA,Commercial,Communications,Falcon,1 48314U 21036AQ  24131.49901571  .00004959  00000+0  35154-3 0  9996,2 48314  53.0538 211.2393 0001566  95.5727 264.5440 15.06401002167457,15.06401002,0.0001566,LEO
48315,STARLINK-2506,2021,95.59,260.0,+,53.05,Active,1,LEO,USA,USA,Commercial,Communications,Falcon,1 48315U 21036AR  24131.49532956  .00003752  00000+0  27077-3 0  9999,2 48315  53.0546 211.2549 0001636  92.1148 268.0028 15.06385599167451,15.06385599,0.0001636,LEO
48316,STARLINK-2507,2021,95.59,260.0,+,53.05,Active,1,LEO,USA,USA,Commercial,Communications,Falcon,1 48316U 21036AS  24131.49163522  .00009539  00000+0  65830-3 0  9997,2 48316  53.0522 211.2737 0001476  88.0736 272.0422 15.06405329167451,15.06405329,0.0001476,LEO
48317,STARLINK-2513,2021,95.59,260.0,+,53.05,Active,1,LEO,USA,USA,Commercial,Communications,Falcon,1 48317U 21036AT  24131.48793530  .00002904  00000+0  21379-3 0  9994,2 48317  53.0542 211.2885 0001573  94.1265 265.9904 15.06394601167457,15.06394601,0.0001573,LEO
48318,STARLINK-2509,2021,95.59,260.0,+,53.05,Active,1,LEO,USA,USA,Commercial,Communications,Falcon,1 48318U 21036AU  24131.54598077  .00005063  00000+0  35852-3 0  9991,2 48318  53.0542 221.0293 0001318  99.6998 260.4140 15.06400509167323,15.06400509,0.0001318,LEO
48319,STARLINK-2512,2021,95.59,260.0,+,53.05,Active,1,LEO,USA,USA,Commercial,Communications,Falcon,1 48319U 21036AV  24131.54136792  .00013037  00000+0  89222-3 0  9994,2 48319  53.0540 221.0393 0001481  89.9275 270.1884 15.06411068167329,15.06411068,0.0001481,LEO
48320,STARLINK-2029,2021,95.59,260.0,+,53.06,Active,1,LEO,USA,USA,Commercial,Communications,Falcon,1 48320U 21036AW  24131.47227196  .00003544  00000+0  25681-3 0  9998,2 48320  53.0551 221.3614 0001411  83.9500 276.1650 15.06378498167315,15.06378498,0.0001411,LEO
48321,STARLINK-2457,2021,95.59,260.0,+,53.05,Active,1,LEO,USA,USA,Commercial,Communications,Falcon,1 48321U 21036AX  24131.53492322  .00004082  00000+0  29280-3 0  9998,2 48321  53.0542 221.0785 0001400  96.6331 263.4818 15.06393399167326,15.06393399,0.00014,LEO
48322,STARLINK-2477,2021,95.59,260.0,+,53.05,Active,1,LEO,USA,USA,Commercial,Communications,Falcon,1 48322U 21036AY  24131.53126449  .00002889  00000+0  21281-3 0  9999,2 48322  53.0538 221.0945 0001445  98.6943 261.4209 15.06390976167320,15.06390976,0.0001445,LEO
48323,STARLINK-2515,2021,95.6,260.0,+,53.05,Active,1,LEO,USA,USA,Commercial,Communications,Falcon,1 48323U 21036AZ  24131.52756594 -.00015893  00000+0 -10519-2 0  9991,2 48323  53.0539 221.1112 0001603  94.2339 265.8833 15.06347798167321,15.06347798,0.0001603,LEO
48324,STARLINK-2527,2021,89.85,260.0,P,53.04,Active,1,LEO,USA,USA,Commercial,Communications,Falcon,1 48324U 21036BA  24131.66953907  .00903909  42153-3  14373-2 0  9997,2 48324  53.0417 178.2554 0001311  31.5661  66.0256 16.03218274168524,16.03218274,0.0001311,LEO
48325,STARLINK-2495,2021,95.59,260.0,+,53.05,Active,1,LEO,USA,USA,Commercial,Communications,Falcon,1 48325U 21036BB  24131.52020961  .00002613  00000+0  19429-3 0  9999,2 48325  53.0538 221.1459 0001285 101.4151 258.6982 15.06386995167322,15.06386995,0.0001285,LEO
48326,STARLINK-2498,2021,95.59,260.0,+,53.05,Active,1,LEO,USA,USA,Commercial,Communications,Falcon,1 48326U 21036BC  24131.51649092  .00005042  00000+0  35719-3 0  9990,2 48326  53.0537 221.1632 0001352 100.9305 259.1836 15.06394763167321,15.06394763,0.0001352,LEO
48327,STARLINK-2502,2021,95.59,260.0,+,53.05,Active,1,LEO,USA,USA,Commercial,Communications,Falcon,1 48327U 21036BD  24131.51281322  .00010549  00000+0  72604-3 0  9991,2 48327  53.0539 221.1782 0001525  84.3263 275.7899 15.06398964167320,15.06398964,0.0001525,LEO
48328,STARLINK-2504,2021,95.59,260.0,+,53.05,Active,1,LEO,USA,USA,Commercial,Communications,Falcon,1 48328U 21036BE  24131.50913318  .00012239  00000+0  83912-3 0  9990,2 48328  53.0537 221.1953 0001494  93.8316 266.2844 15.06400676167327,15.06400676,0.0001494,LEO
48329,STARLINK-2510,2021,95.59,260.0,+,53.05,Active,1,LEO,USA,USA,Commercial,Communications,Falcon,1 48329U 21036BF  24131.57178390  .00011211  00000+0  77024-3 0  9997,2 48329  53.0531 220.9129 0001249  97.5171 262.5960 15.06402879167338,15.06402879,0.0001249,LEO
48330,STARLINK-2501,2021,95.59,260.0,+,53.05,Active,1,LEO,USA,USA,Commercial,Communications,Falcon,1 48330U 21036BG  24131.56809622  .00000272  00000+0  37121-4 0  9997,2 48330  53.0534 220.9291 0001099  98.2275 261.8839 15.06397383167339,15.06397383,0.0001099,LEO
48331,STARLINK-2514,2021,95.59,260.0,+,53.05,Active,1,LEO,USA,USA,Commercial,Communications,Falcon,1 48331U 21036BH  24131.56444010  .00030946  00000+0  20878-2 0  9994,2 48331  53.0533 220.9464 0001682  94.0132 266.1050 15.06391666167336,15.06391666,0.0001682,LEO
48332,STARLINK-2511,2021,95.59,260.0,+,53.05,Active,1,LEO,USA,USA,Commercial,Communications,Falcon,1 48332U 21036BJ  24131.56349277  .00018330  00000+0  12466-2 0  9991,2 48332  53.0532 220.9504 0001424  99.5539 260.5611 15.06389409167339,15.06389409,0.0001424,LEO
48333,STARLINK-2518,2021,95.59,260.0,+,53.05,Active,1,LEO,USA,USA,Commercial,Communications,Falcon,1 48333U 21036BK  24131.55706680  .00012406  00000+0  85051-3 0  9995,2 48333  53.0538 220.9797 0001894  81.1937 278.9266 15.06390460167338,15.0639046,0.0001894,LEO
48334,STARLINK-2470,2021,95.59,260.0,+,53.05,Active,1,LEO,USA,USA,Commercial,Communications,Falcon,1 48334U 21036BL  24131.55337574  .00012300  00000+0  84343-3 0  9994,2 48334  53.0541 220.9967 0001324  93.2297 266.8843 15.06389553167331,15.06389553,0.0001324,LEO
48335,STARLINK-2441,2021,95.59,260.0,+,53.05,Active,1,LEO,USA,USA,Commercial,Communications,Falcon,1 48335U 21036BM  24131.54965972  .00002598  00000+0  19323-3 0  9997,2 48335  53.0540 221.0113 0001250 101.6652 258.4478 15.06397913167333,15.06397913,0.000125,LEO
48340,YAOGAN-34 01,2021,107.04,500.0,+,63.4,Active,1,LEO,PRC,China,Military,Earth Observation,Long March,1 48340U 21037A   24131.61996851 -.00000049  00000+0  66944-4 0  9994,2 48340  63.4045 317.8079 0105271 358.5035   1.5661 13.45325142148735,13.45325142,0.0105271,LEO
48353,STARLINK-2613,2021,95.59,260.0,+,53.05,Active,1,LEO,USA,USA,Commercial,Communications,Falcon,1 48353U 21038A   24131.28981854  .00001433  00000+0  11505-3 0  9998,2 48353  53.0537 122.1786 0001079  83.8232 276.2880 15.06407075166289,15.06407075,0.0001079,LEO
48354,STARLINK-2674,2021,95.59,260.0,+,53.05,Active,1,LEO,USA,USA,Commercial,Communications,Falcon,1 48354U 21038B   24131.35248244  .00001134  00000+0  94991-4 0  9995,2 48354  53.0543 121.8953 0001437  92.1193 267.9960 15.06400736166290,15.06400736,0.0001437,LEO
48355,STARLINK-2635,2021,95.59,260.0,+,53.05,Active,1,LEO,USA,USA,Commercial,Communications,Falcon,1 48355U 21038C   24131.34880255  .00001310  00000+0  10682-3 0  9999,2 48355  53.0549 121.9122 0001465  89.9730 270.1427 15.06396734166294,15.06396734,0.0001465,LEO
